H1 CPF 01  gfz 2021 10 02 00  7751 terrasarx 
H2 0702601  6201 31698    2021 10 02 00 59 42 2021 10 07 00 00 42   120 1 1  0 0 0
H9
10 0 59492  25902.000000  0    3831275.584  -1951733.123  -5389469.573
10 0 59492  26022.000000  0    3077261.336  -1814688.523  -5897021.741
10 0 59492  26142.000000  0    2272657.533  -1632524.948  -6301546.565
10 0 59492  26262.000000  0    1432222.017  -1407668.996  -6596062.042
10 0 59492  26382.000000  0     571255.323  -1143539.708  -6775494.896
10 0 59492  26502.000000  0    -294674.343   -844496.940  -6836758.393
10 0 59492  26622.000000  0   -1150006.704   -515770.248  -6778799.185
10 0 59492  26742.000000  0   -1979462.573   -163369.492  -6602613.771
10 0 59492  26862.000000  0   -2768310.727    206022.368  -6311232.207
10 0 59492  26982.000000  0   -3502623.468    585171.706  -5909671.434
10 0 59492  27102.000000  0   -4169520.293    966431.323  -5404859.034
10 0 59492  27222.000000  0   -4757395.545   1341889.423  -4805524.644
10 0 59492  27342.000000  0   -5256126.131   1703529.751  -4122061.661
10 0 59492  27462.000000  0   -5657254.410   2043399.477  -3366356.439
10 0 59492  27582.000000  0   -5954141.798   2353779.803  -2551589.580
10 0 59492  27702.000000  0   -6142090.505   2627356.900  -1692010.783
10 0 59492  27822.000000  0   -6218428.916   2857389.157   -802690.267
10 0 59492  27942.000000  0   -6182557.930   3037866.278    100748.831
10 0 59492  28062.000000  0   -6035955.542   3163655.375   1002412.282
10 0 59492  28182.000000  0   -5782138.215   3230630.566   1886423.132
10 0 59492  28302.000000  0   -5426581.146   3235782.423   2737210.348
10 0 59492  28422.000000  0   -4976599.588   3177304.566   3539791.026
10 0 59492  28542.000000  0   -4441194.031   3054654.675   4280041.275
10 0 59492  28662.000000  0   -3830862.992   2868588.470   4944948.004
10 0 59492  28782.000000  0   -3157390.285   2621167.232   5522837.575
10 0 59492  28902.000000  0   -2433610.428   2315738.994   6003579.432
10 0 59492  29022.000000  0   -1673157.144   1956892.665   6378759.284
10 0 59492  29142.000000  0    -890201.218   1550386.989   6641819.960
10 0 59492  29262.000000  0     -99184.717   1103055.987   6788168.470
10 0 59492  29382.000000  0     685444.850    622692.675   6815251.165
10 0 59492  29502.000000  0    1449497.528    117913.270   6722595.190
10 0 59492  29622.000000  0    2179296.198   -401996.490   6511816.458
10 0 59492  29742.000000  0    2861920.782   -927251.613   6186594.163
10 0 59492  29862.000000  0    3485438.370  -1447750.854   5752611.307
10 0 59492  29982.000000  0    4039115.565  -1953270.642   5217460.972
10 0 59492  30102.000000  0    4513607.424  -2433665.811   4590518.757
10 0 59492  30222.000000  0    4901121.501  -2879074.043   3882784.990
10 0 59492  30342.000000  0    5195554.031  -3280120.514   3106695.461
10 0 59492  30462.000000  0    5392593.131  -3628116.449   2275902.401
10 0 59492  30582.000000  0    5489785.423  -3915247.498   1405031.837
10 0 59492  30702.000000  0    5486566.263  -4134748.229    509421.290
10 0 59492  30822.000000  0    5384251.838  -4281056.355   -395157.580
10 0 59492  30942.000000  0    5185993.330  -4349944.462  -1292785.538
10 0 59492  31062.000000  0    4896693.508  -4338623.950  -2167684.961
10 0 59492  31182.000000  0    4522888.304  -4245819.469  -3004504.654
10 0 59492  31302.000000  0    4072597.249  -4071812.516  -3788593.876
10 0 59492  31422.000000  0    3555146.563  -3818452.826  -4506260.270
10 0 59492  31542.000000  0    2980970.293  -3489138.684  -5145006.321
10 0 59492  31662.000000  0    2361394.439  -3088766.848  -5693740.355
10 0 59492  31782.000000  0    1708410.590  -2623654.846  -6142958.635
10 0 59492  31902.000000  0    1034443.483  -2101437.994  -6484900.234
10 0 59492  32022.000000  0     352114.819  -1530940.323  -6713671.392
10 0 59492  32142.000000  0    -325990.319   -922023.943  -6825336.247
10 0 59492  32262.000000  0    -987550.282   -285420.227  -6817976.117
10 0 59492  32382.000000  0   -1620725.265    367455.198  -6691718.610
10 0 59492  32502.000000  0   -2214364.443   1024701.922  -6448735.023
10 0 59492  32622.000000  0   -2758197.785   1674146.157  -6093207.085
10 0 59492  32742.000000  0   -3243011.264   2303560.769  -5631263.119
10 0 59492  32862.000000  0   -3660803.948   2900892.317  -5070884.111
10 0 59492  32982.000000  0   -4004924.507   3454491.278  -4421777.361
10 0 59492  33102.000000  0   -4270182.556   3953340.343  -3695217.959
10 0 59492  33222.000000  0   -4452931.672   4387276.530  -2903861.836
10 0 59492  33342.000000  0   -4551124.514   4747202.797  -2061531.898
10 0 59492  33462.000000  0   -4564337.036   5025282.996  -1182979.361
10 0 59492  33582.000000  0   -4493761.517   5215116.907   -283624.400
10 0 59492  33702.000000  0   -4342165.250   5311888.655    620720.810
10 0 59492  33822.000000  0   -4113817.600   5312484.360   1514136.892
10 0 59492  33942.000000  0   -3814386.485   5215576.268   2380888.282
10 0 59492  34062.000000  0   -3450805.163   5021668.784   3205709.841
10 0 59492  34182.000000  0   -3031114.112   4733107.753   3974082.261
10 0 59492  34302.000000  0   -2564283.785   4354053.357   4672491.938
10 0 59492  34422.000000  0   -2060021.202   3890416.302   5288670.784
10 0 59492  34542.000000  0   -1528565.873   3349759.113   5811810.874
10 0 59492  34662.000000  0    -980479.351   2741165.605   6232750.064
10 0 59492  34782.000000  0    -426434.111   2075081.487   6544125.922
10 0 59492  34902.000000  0     122993.512   1363131.445   6740497.928
10 0 59492  35022.000000  0     657524.913    617913.564   6818437.578
10 0 59492  35142.000000  0    1167370.654   -147223.910   6776583.486
10 0 59492  35262.000000  0    1643408.642   -918420.581   6615664.481
10 0 59492  35382.000000  0    2077347.020  -1681554.577   6338487.998
10 0 59492  35502.000000  0    2461869.097  -2422500.386   5949894.962
10 0 59492  35622.000000  0    2790758.780  -3127391.549   5456680.720
10 0 59492  35742.000000  0    3059003.237  -3782882.574   4867481.668
10 0 59492  35862.000000  0    3262871.367  -4376405.474   4192629.980
10 0 59492  35982.000000  0    3399967.361  -4896417.162   3443976.689
10 0 59492  36102.000000  0    3469256.467  -5332630.463   2634684.975
10 0 59492  36222.000000  0    3471063.103  -5676224.580   1778997.669
10 0 59492  36342.000000  0    3407040.261  -5920029.199    891982.542
10 0 59492  36462.000000  0    3280111.559  -6058676.240    -10739.088
10 0 59492  36582.000000  0    3094388.269  -6088718.638   -913274.475
10 0 59492  36702.000000  0    2855060.491  -6008709.863  -1799749.927
10 0 59492  36822.000000  0    2568266.526  -5819241.815  -2654597.315
10 0 59492  36942.000000  0    2240945.317  -5522942.973  -3462834.130
10 0 59492  37062.000000  0    1880673.638  -5124434.937  -4210330.395
10 0 59492  37182.000000  0    1495493.564  -4630248.615  -4884054.065
10 0 59492  37302.000000  0    1093736.465  -4048705.997  -5472292.467
10 0 59492  37422.000000  0     683846.251  -3389770.189  -5964847.997
10 0 59492  37542.000000  0     274205.130  -2664866.702  -6353204.408
10 0 59492  37662.000000  0    -127034.134  -1886680.631  -6630662.561
10 0 59492  37782.000000  0    -512106.163  -1068933.381  -6792445.261
10 0 59492  37902.000000  0    -873778.419   -226142.593  -6835771.181
10 0 59492  38022.000000  0   -1205483.051    626631.175  -6759896.659
10 0 59492  38142.000000  0   -1501433.363   1474046.481  -6566126.461
10 0 59492  38262.000000  0   -1756722.330   2300750.141  -6257793.531
10 0 59492  38382.000000  0   -1967402.969   3091648.870  -5840209.072
10 0 59492  38502.000000  0   -2130549.679   3832182.158  -5320580.824
10 0 59492  38622.000000  0   -2244298.711   4508590.173  -4707900.188
10 0 59492  38742.000000  0   -2307867.981   5108173.703  -4012797.650
10 0 59492  38862.000000  0   -2321554.306   5619538.868  -3247366.873
10 0 59492  38982.000000  0   -2286707.754   6032821.511  -2424961.911
10 0 59492  39102.000000  0   -2205684.090   6339888.580  -1559969.053
10 0 59492  39222.000000  0   -2081776.099   6534508.303   -667554.611
10 0 59492  39342.000000  0   -1919124.812   6612485.268    236602.807
10 0 59492  39462.000000  0   -1722612.721   6571759.860   1136594.195
10 0 59492  39582.000000  0   -1497740.287   6412461.535   2016572.127
10 0 59492  39702.000000  0   -1250489.129   6136915.238   2861039.155
10 0 59492  39822.000000  0    -987177.033   5749604.866   3655127.393
10 0 59492  39942.000000  0    -714308.441   5257095.422   4384865.367
10 0 59492  40062.000000  0    -438423.443   4667913.663   5037428.997
10 0 59492  40182.000000  0    -165947.157   3992387.964   5601366.055
10 0 59492  40302.000000  0      96953.287   3242459.649   6066792.991
10 0 59492  40422.000000  0     344502.606   2431463.289   6425564.374
10 0 59492  40542.000000  0     571439.779   1573883.778   6671408.883
10 0 59492  40662.000000  0     773126.574    685093.745   6800033.254
10 0 59492  40782.000000  0     945639.962   -218923.042   6809191.550
10 0 59492  40902.000000  0    1085847.286  -1121857.778   6698722.765
10 0 59492  41022.000000  0    1191462.984  -2007370.652   6470554.113
10 0 59492  41142.000000  0    1261085.976  -2859386.278   6128670.048
10 0 59492  41262.000000  0    1294216.958  -3662387.430   5679046.862
10 0 59492  41382.000000  0    1291254.991  -4401700.053   5129552.287
10 0 59492  41502.000000  0    1253475.199  -5063764.595   4489813.866
10 0 59492  41622.000000  0    1182986.799  -5636392.264   3771057.086
10 0 59492  41742.000000  0    1082672.166  -6108999.896   2985911.234
10 0 59492  41862.000000  0     956108.107  -6472814.741   2148187.159
10 0 59492  41982.000000  0     807470.111  -6721046.555   1272632.685
10 0 59492  42102.000000  0     641423.116  -6849022.718    374668.521
10 0 59492  42222.000000  0     463000.714  -6854283.069   -529891.753
10 0 59492  42342.000000  0     277475.034  -6736627.118  -1425131.198
99
